[{"OBJECT_NAME":"LEMUR-2-AMANDA-SVANTE","OBJECT_ID":"2021-034B","EPOCH":"2026-03-09T18:37:58.823328","MEAN_MOTION":15.28469003,"ECCENTRICITY":0.00027027,"INCLINATION":97.5829,"RA_OF_ASC_NODE":144.8625,"ARG_OF_PERICENTER":205.4721,"MEAN_ANOMALY":154.6385,"EPHEMERIS_TYPE":0,"CLASSIFICATION_TYPE":"U","NORAD_CAT_ID":48269,"ELEMENT_SET_NO":999,"REV_AT_EPOCH":26584,"BSTAR":0.0011134246,"MEAN_MOTION_DOT":0.00030872,"MEAN_MOTION_DDOT":0},{"OBJECT_NAME":"STARLINK-32498","OBJECT_ID":"2024-210H","EPOCH":"2026-03-09T14:02:34.810368","MEAN_MOTION":15.27605242,"ECCENTRICITY":0.0001894,"INCLINATION":43.0044,"RA_OF_ASC_NODE":165.7411,"ARG_OF_PERICENTER":285.7197,"MEAN_ANOMALY":74.3445,"EPHEMERIS_TYPE":0,"CLASSIFICATION_TYPE":"U","NORAD_CAT_ID":61966,"ELEMENT_SET_NO":999,"REV_AT_EPOCH":7506,"BSTAR":0.00082165,"MEAN_MOTION_DOT":0.00022434,"MEAN_MOTION_DDOT":0}]
